[{"OBJECT_NAME":"HAWK-7C","OBJECT_ID":"2023-054Y","EPOCH":"2026-03-09T16:32:02.440032","MEAN_MOTION":15.26207266,"ECCENTRICITY":0.00036507,"INCLINATION":97.2829,"RA_OF_ASC_NODE":317.5849,"ARG_OF_PERICENTER":52.209,"MEAN_ANOMALY":307.9479,"EPHEMERIS_TYPE":0,"CLASSIFICATION_TYPE":"U","NORAD_CAT_ID":56200,"ELEMENT_SET_NO":999,"REV_AT_EPOCH":16184,"BSTAR":0.0003098019,"MEAN_MOTION_DOT":7.947e-5,"MEAN_MOTION_DDOT":0},{"OBJECT_NAME":"STARLINK-31654","OBJECT_ID":"2024-098A","EPOCH":"2026-03-09T21:30:44.538912","MEAN_MOTION":15.27576821,"ECCENTRICITY":9.601e-5,"INCLINATION":43.0009,"RA_OF_ASC_NODE":269.4004,"ARG_OF_PERICENTER":275.2408,"MEAN_ANOMALY":84.8334,"EPHEMERIS_TYPE":0,"CLASSIFICATION_TYPE":"U","NORAD_CAT_ID":59858,"ELEMENT_SET_NO":999,"REV_AT_EPOCH":10195,"BSTAR":5.8677594e-5,"MEAN_MOTION_DOT":1.353e-5,"MEAN_MOTION_DDOT":0}]
